{"fetched_at":"2026-07-07T07:58:57.471Z","source":"https://celestrak.org/NORAD/elements/gp.php?NAME=TIGER&FORMAT=JSON","constellation":"oq-technology","records":[{"OBJECT_NAME":"TIGER-8","OBJECT_ID":"2024-043Y","EPOCH":"2026-07-06T07:50:36.707136","CLASSIFICATION_TYPE":"U","MEAN_MOTION":15.45049269,"ECCENTRICITY":0.00086705,"INCLINATION":97.557,"RA_OF_ASC_NODE":336.7155,"ARG_OF_PERICENTER":129.7482,"MEAN_ANOMALY":230.4532,"EPHEMERIS_TYPE":0,"NORAD_CAT_ID":59120,"ELEMENT_SET_NO":999,"REV_AT_EPOCH":13074,"BSTAR":0.00020483085,"MEAN_MOTION_DOT":0.00009592,"MEAN_MOTION_DDOT":0},{"OBJECT_NAME":"TIGER-7","OBJECT_ID":"2024-043AV","EPOCH":"2026-07-06T09:14:12.589152","CLASSIFICATION_TYPE":"U","MEAN_MOTION":15.49202354,"ECCENTRICITY":0.00068526,"INCLINATION":97.5509,"RA_OF_ASC_NODE":339.2329,"ARG_OF_PERICENTER":101.2063,"MEAN_ANOMALY":258.9958,"EPHEMERIS_TYPE":0,"NORAD_CAT_ID":59141,"ELEMENT_SET_NO":999,"REV_AT_EPOCH":13094,"BSTAR":0.0002521832,"MEAN_MOTION_DOT":0.00013662,"MEAN_MOTION_DDOT":0}]}
