TIGER-8                 
1 59120U 24043Y   26187.32681374  .00009592  00000+0  20483-3 0  9992
2 59120  97.5570 336.7155 0008670 129.7482 230.4532 15.45049269130745
TIGER-7                 
1 59141U 24043AV  26187.38486793  .00013662  00000+0  25218-3 0  9993
2 59141  97.5509 339.2329 0006852 101.2063 258.9958 15.49202354130940
